[{"OBJECT_NAME":"STARLINK-30826","OBJECT_ID":"2023-167P","EPOCH":"2026-03-09T22:00:01.999584","MEAN_MOTION":15.27573902,"ECCENTRICITY":0.00018071,"INCLINATION":43.0009,"RA_OF_ASC_NODE":142.099,"ARG_OF_PERICENTER":284.1661,"MEAN_ANOMALY":305.1033,"EPHEMERIS_TYPE":0,"CLASSIFICATION_TYPE":"U","NORAD_CAT_ID":58188,"ELEMENT_SET_NO":999,"REV_AT_EPOCH":578,"BSTAR":-0.00084702889,"MEAN_MOTION_DOT":-0.00023493,"MEAN_MOTION_DDOT":0},{"OBJECT_NAME":"COSMOS 249 DEB","OBJECT_ID":"1968-091S","EPOCH":"2026-03-09T23:11:16.315584","MEAN_MOTION":14.62767046,"ECCENTRICITY":0.02830409,"INCLINATION":62.2933,"RA_OF_ASC_NODE":296.5114,"ARG_OF_PERICENTER":188.6799,"MEAN_ANOMALY":170.9327,"EPHEMERIS_TYPE":0,"CLASSIFICATION_TYPE":"U","NORAD_CAT_ID":3584,"ELEMENT_SET_NO":999,"REV_AT_EPOCH":84837,"BSTAR":0.0011832557,"MEAN_MOTION_DOT":0.00010675,"MEAN_MOTION_DDOT":0}]
